IRIDIUM 26              
1 24903U 97043A   25355.54046097  .00000313  00000+0  98174-4 0  9995
2 24903  86.3950  31.8633 0002221  98.7292 261.4157 14.37333953483652
IRIDIUM 22              
1 24907U 97043E   25355.83521367  .00000281  00000+0  89822-4 0  9993
2 24907  86.3954  35.4406 0002340  94.3412 265.8053 14.36127343483708
DUMMY MASS 1            
1 24925U 97048A   25355.62012508  .00000333  00000+0  33830-4 0  9993
2 24925  86.3336  48.5967 0006169 180.4518 179.6703 14.87189792532987
DUMMY MASS 2            
1 24926U 97048B   25355.68088341  .00000339  00000+0  34713-4 0  9995
2 24926  86.3335  50.2111 0006410 195.1533 164.9501 14.86940316532762
IRIDIUM 29              
1 24944U 97051A   25355.72025897  .00000304  00000+0  96584-4 0  9997
2 24944  86.3947  65.1728 0002257  91.0571 269.0885 14.36669189480193
IRIDIUM 33              
1 24946U 97051C   25355.70149161  .00000278  00000+0  90806-4 0  9999
2 24946  86.3862  64.4599 0008106 170.6485 189.4863 14.35043089479638
IRIDIUM 28              
1 24948U 97051E   25355.71485866  .00000325  00000+0  10185-3 0  9991
2 24948  86.3951  62.5835 0002236 109.2698 250.8742 14.37569313480785
IRIDIUM 36              
1 24967U 97056C   25355.71857102  .00000353  00000+0  11065-3 0  9992
2 24967  86.3963  94.2096 0002306 100.7730 259.3727 14.37791381479160
